STARLINK-1470           
1 45772U 20038AU  26068.60892913  .00054678  00000+0  19687-2 0  9990
2 45772  53.0480 174.6971 0002444  12.8687 347.2373 15.28074860317065
STARLINK-31077          
1 58637U 23203V   26068.00383038  .00000846  00000+0  40295-4 0  9997
2 58637  43.0102  71.2186 0001120 235.6806 124.3940 15.27563784124682
